NORAD_CAT_ID,OBJECT_NAME,OBJECT_TYPE,EPOCH,MEAN_MOTION,ECCENTRICITY,INCLINATION,RA_OF_ASC_NODE,ARG_OF_PERICENTER,MEAN_ANOMALY,BSTAR,MEAN_MOTION_DOT,MEAN_MOTION_DDOT,TLE_LINE0,TLE_LINE1,TLE_LINE2,SEMIMAJOR_AXIS,PERIOD,APOGEE,PERIGEE,DECAYED
53603.0,STARLINK-4692,PAYLOAD,2023-04-08 14:00:01,15.10442369,0.0001353,53.217,345.3475,89.1769,325.3691,0.0045206,0.00075698,0.0,0 STARLINK-4692,1 53603U 22104R   23098.58334491  .00075698  00000-0  45206-2 0  9999,2 53603  53.2170 345.3475 0001353  89.1769 325.3691 15.10442369  1308,6912.987,95.336,535.787,533.917,0.0
53603.0,STARLINK-4692,PAYLOAD,2023-04-09 02:27:52,15.10486119,0.0001312,53.2167,343.0102,79.9404,280.1736,0.00022234,3.412e-05,0.0,0 STARLINK-4692,1 53603U 22104R   23099.10268559  .00003412  00000-0  22234-3 0  9991,2 53603  53.2167 343.0102 0001312  79.9404 280.1736 15.10486119 34815,6912.853,95.334,535.625,533.811,0.0
53603.0,STARLINK-4692,PAYLOAD,2023-04-09 16:45:24,15.10475665,0.0001327,53.2166,340.33,88.7235,271.391,1.596e-05,-2.7e-07,0.0,0 STARLINK-4692,1 53603U 22104R   23099.69820155 -.00000027  00000-0  15960-4 0  9990,2 53603  53.2166 340.3300 0001327  88.7235 271.3910 15.10475665 34214,6912.885,95.334,535.668,533.833,0.0
53603.0,STARLINK-4692,PAYLOAD,2023-04-10 02:17:06,15.1048697,0.0001298,53.2162,338.5435,91.6756,268.4385,0.00055545,8.969e-05,0.0,0 STARLINK-4692,1 53603U 22104R   23100.09520900  .00008969  00000-0  55545-3 0  9996,2 53603  53.2162 338.5435 0001298  91.6756 268.4385 15.10486970 34276,6912.851,95.333,535.613,533.819,0.0
53603.0,STARLINK-4692,PAYLOAD,2023-04-11 14:48:35,15.1047647,0.0001263,53.2149,331.6943,92.2363,267.8775,8.3248e-05,1.094e-05,0.0,0 STARLINK-4692,1 53603U 22104R   23101.61707937  .00001094  00000-0  83248-4 0  9996,2 53603  53.2149 331.6943 0001263  92.2363 267.8775 15.10476470 35194,6912.883,95.334,535.621,533.875,0.0
53603.0,STARLINK-4692,PAYLOAD,2023-04-12 00:20:17,15.10477983,0.0001104,53.2162,329.9073,92.6513,267.4607,8.7276e-05,1.161e-05,0.0,0 STARLINK-4692,1 53603U 22104R   23102.01408837  .00001161  00000-0  87276-4 0  9998,2 53603  53.2162 329.9073 0001104  92.6513 267.4607 15.10477983 35255,6912.878,95.334,535.506,533.98,0.0
53603.0,STARLINK-4692,PAYLOAD,2023-04-13 00:09:31,15.10474894,0.0001219,53.2173,325.4399,79.9079,280.2052,3.0767e-05,2.2e-06,0.0,0 STARLINK-4692,1 53603U 22104R   23103.00661643  .00000220  00000-0  30767-4 0  9992,2 53603  53.2173 325.4399 0001219  79.9079 280.2052 15.10474894 35403,6912.888,95.334,535.595,533.91,0.0
53603.0,STARLINK-4692,PAYLOAD,2023-04-13 23:58:44,15.10493903,9.22e-05,53.2162,320.9727,83.1959,276.9138,0.00040005,6.377e-05,0.0,0 STARLINK-4692,1 53603U 22104R   23103.99913086  .00006377  00000-0  40005-3 0  9995,2 53603  53.2162 320.9727 0000922  83.1959 276.9138 15.10493903 35555,6912.83,95.333,535.332,534.057,0.0
53603.0,STARLINK-4692,PAYLOAD,2023-04-15 01:23:15,15.10496249,0.0001079,53.2164,316.2096,75.6247,284.4865,0.00040223,6.413e-05,0.0,0 STARLINK-4692,1 53603U 22104R   23105.05781926  .00006413  00000-0  40223-3 0  9993,2 53603  53.2164 316.2096 0001079  75.6247 284.4865 15.10496249 35719,6912.823,95.333,535.433,533.942,0.0
53603.0,STARLINK-4692,PAYLOAD,2023-04-15 20:26:39,15.10484081,0.0001084,53.2152,312.6382,68.2081,291.9027,-1.7962e-05,-5.92e-06,0.0,0 STARLINK-4692,1 53603U 22104R   23105.85184028 -.00000592  00000-0 -17962-4 0  9990,2 53603  53.2152 312.6382 0001084  68.2081 291.9027 15.10484081 35831,6912.86,95.334,535.474,533.975,0.0
53603.0,STARLINK-4692,PAYLOAD,2023-04-16 13:54:45,15.10480485,0.0001812,53.2159,309.3613,96.5497,263.5702,0.00039038,6.213e-05,0.0,0 STARLINK-4692,1 53603U 22104R   23106.57969519  .00006213  00000-0  39038-3 0  9997,2 53603  53.2159 309.3613 0001812  96.5497 263.5702 15.10480485 35257,6912.871,95.334,535.988,533.483,0.0
53603.0,STARLINK-4692,PAYLOAD,2023-04-16 20:15:53,15.10480625,0.0001125,53.2182,308.1725,86.6543,273.4579,0.00045928,7.362e-05,0.0,0 STARLINK-4692,1 53603U 22104R   23106.84436809  .00007362  00000-0  45928-3 0  9999,2 53603  53.2182 308.1725 0001125  86.6543 273.4579 15.10480625 35981,6912.87,95.334,535.513,533.957,0.0
53603.0,STARLINK-4692,PAYLOAD,2023-04-17 13:43:58,15.1051492,0.0001037,53.2159,304.8939,78.2426,281.8683,0.0013724,0.00022652,0.0,0 STARLINK-4692,1 53603U 22104R   23107.57220733  .00022652  00000-0  13724-2 0  9994,2 53603  53.2159 304.8939 0001037  78.2426 281.8683 15.10514920 36092,6912.766,95.332,535.347,533.914,0.0
53603.0,STARLINK-4692,PAYLOAD,2023-04-17 20:05:07,15.10493997,0.0001065,53.2167,303.7029,87.4039,272.7076,0.00075754,0.00012347,0.0,0 STARLINK-4692,1 53603U 22104R   23107.83688853  .00012347  00000-0  75754-3 0  9996,2 53603  53.2167 303.7029 0001065  87.4039 272.7076 15.10493997 35445,6912.829,95.333,535.431,533.958,0.0
53603.0,STARLINK-4692,PAYLOAD,2023-04-18 05:36:53,15.10308584,6.91e-05,53.2163,301.9161,86.5597,273.5474,-0.0045921,-0.00075586,0.0,0 STARLINK-4692,1 53603U 22104R   23108.23395105 -.00075586  00000-0 -45921-2 0  9994,2 53603  53.2163 301.9161 0000691  86.5597 273.5474 15.10308584 35506,6913.395,95.345,535.738,534.782,0.0
53603.0,STARLINK-4692,PAYLOAD,2023-04-19 14:00:01,15.08852158,0.0001281,53.2152,295.851,90.4686,46.2685,-0.0011493,-0.00018538,0.0,0 STARLINK-4692,1 53603U 22104R   23109.58334491 -.00018538  00000-0 -11493-2 0  9995,2 53603  53.2152 295.8510 0001281  90.4686  46.2685 15.08852158 35701,6917.843,95.437,540.594,538.822,0.0
53603.0,STARLINK-4692,PAYLOAD,2023-04-19 22:00:00,15.08816723,0.0001263,53.2149,294.356,79.5363,68.8074,0.001889,0.00029884,0.0,0 STARLINK-4692,1 53603U 22104R   23109.91667824  .00029884  00000-0  18890-2 0  9993,2 53603  53.2149 294.3560 0001263  79.5363  68.8074 15.08816723  1305,6917.952,95.439,540.69,538.943,0.0
53603.0,STARLINK-4692,PAYLOAD,2023-04-20 14:00:01,15.08858776,0.0001208,53.2149,291.3615,86.2226,85.2667,-0.00049082,-8.095e-05,0.0,0 STARLINK-4692,1 53603U 22104R   23110.58334491 -.00008095  00000-0 -49082-3 0  9990,2 53603  53.2149 291.3615 0001208  86.2226  85.2667 15.08858776  1300,6917.823,95.436,540.524,538.852,0.0
53603.0,STARLINK-4692,PAYLOAD,2023-04-20 20:00:01,15.08847041,0.0001236,53.2148,290.2404,78.0538,12.1325,-0.0019045,-0.00030476,0.0,0 STARLINK-4692,1 53603U 22104R   23110.83334491 -.00030476  00000-0 -19045-2 0  9991,2 53603  53.2148 290.2404 0001236  78.0538  12.1325 15.08847041 35893,6917.859,95.437,540.579,538.869,0.0
53603.0,STARLINK-4692,PAYLOAD,2023-04-20 22:00:00,15.08817609,0.0001188,53.2148,289.8665,75.6897,107.404,0.0016707,0.00026385,0.0,0 STARLINK-4692,1 53603U 22104R   23110.91667824  .00026385  00000-0  16707-2 0  9993,2 53603  53.2148 289.8665 0001188  75.6897 107.4040 15.08817609  1301,6917.949,95.439,540.636,538.992,0.0
53603.0,STARLINK-4692,PAYLOAD,2023-04-21 14:00:01,15.08864978,0.0001188,53.215,286.872,88.9091,117.3476,-0.0010024,-0.00016216,0.0,0 STARLINK-4692,1 53603U 22104R   23111.58334491 -.00016216  00000-0 -10024-2 0  9998,2 53603  53.2150 286.8720 0001188  88.9091 117.3476 15.08864978 36005,6917.804,95.436,540.491,538.847,0.0
53603.0,STARLINK-4692,PAYLOAD,2023-04-22 00:00:02,15.08824393,0.000112,53.2148,285.0024,79.9007,230.9404,0.0008641,0.00013485,0.0,0 STARLINK-4692,1 53603U 22104R   23112.00002315  .00013485  00000-0  86410-3 0  9999,2 53603  53.2148 285.0024 0001120  79.9007 230.9404 15.08824393  1308,6917.928,95.439,540.568,539.018,0.0
53603.0,STARLINK-4692,PAYLOAD,2023-04-22 14:00:01,15.08878403,0.0001221,53.2155,282.3825,90.7534,150.3064,-0.0021178,-0.0003387,0.0,0 STARLINK-4692,1 53603U 22104R   23112.58334491 -.00033870  00000-0 -21178-2 0  9996,2 53603  53.2155 282.3825 0001221  90.7534 150.3064 15.08878403  1301,6917.763,95.435,540.473,538.783,0.0
53603.0,STARLINK-4692,PAYLOAD,2023-04-23 00:00:00,15.08822114,0.000133,53.2154,280.5129,79.5286,266.06,-8.2075e-05,-1.593e-05,0.0,0 STARLINK-4692,1 53603U 22104R   23113.00001157 -.00001593  00000-0 -82075-4 0  9996,2 53603  53.2154 280.5129 0001330  79.5286 266.0600 15.08822114  1306,6917.935,95.439,540.72,538.88,0.0
53603.0,STARLINK-4692,PAYLOAD,2023-04-23 11:11:34,15.08837494,0.0001502,53.2139,278.4186,86.0207,274.0957,9.8339e-06,-1.31e-06,0.0,0 STARLINK-4692,1 53603U 22104R   23113.46637210 -.00000131  00000-0  98339-5 0  9998,2 53603  53.2139 278.4186 0001502  86.0207 274.0957 15.08837494 36988,6917.888,95.438,540.792,538.714,0.0
53603.0,STARLINK-4692,PAYLOAD,2023-04-23 22:19:16,15.08845705,0.0001771,53.2151,276.3363,85.3146,274.8048,0.00016289,2.306e-05,0.0,0 STARLINK-4692,1 53603U 22104R   23113.93004987  .00002306  00000-0  16289-3 0  9996,2 53603  53.2151 276.3363 0001771  85.3146 274.8048 15.08845705 36363,6917.863,95.437,540.953,538.503,0.0
53603.0,STARLINK-4692,PAYLOAD,2023-04-25 02:56:12,15.08801735,0.0001913,53.2163,270.9846,107.912,252.208,-0.0021509,-0.00034322,0.0,0 STARLINK-4692,1 53603U 22104R   23115.12237201 -.00034322  00000-0 -21509-2 0  9991,2 53603  53.2163 270.9846 0001913 107.9120 252.2080 15.08801735 36544,6917.997,95.44,541.186,538.539,0.0
53603.0,STARLINK-4692,PAYLOAD,2023-04-25 10:53:08,15.08784668,0.0001461,53.2165,269.4964,119.6945,240.4193,-0.0017795,-0.00028454,0.0,0 STARLINK-4692,1 53603U 22104R   23115.45357628 -.00028454  00000-0 -17795-2 0  9994,2 53603  53.2165 269.4964 0001461 119.6945 240.4193 15.08784668 36597,6918.05,95.441,540.925,538.904,0.0
53603.0,STARLINK-4692,PAYLOAD,2023-04-25 12:28:32,15.08781867,0.0001546,53.2166,269.1995,120.4606,239.6539,-0.0015527,-0.00024875,0.0,0 STARLINK-4692,1 53603U 22104R   23115.51981876 -.00024875  00000-0 -15527-2 0  9993,2 53603  53.2166 269.1995 0001546 120.4606 239.6539 15.08781867 37297,6918.058,95.441,540.993,538.854,0.0
53603.0,STARLINK-4692,PAYLOAD,2023-04-25 18:50:05,15.08799749,0.0002545,53.2194,268.0161,118.1585,241.9664,-0.00053477,-8.78e-05,0.0,0 STARLINK-4692,1 53603U 22104R   23115.78478722 -.00008780  00000-0 -53477-3 0  9997,2 53603  53.2194 268.0161 0002545 118.1585 241.9664 15.08799749 36642,6918.003,95.44,541.629,538.108,0.0
